[{"OBJECT_NAME":"STARLINK-34136","OBJECT_ID":"2025-110S","EPOCH":"2026-03-09T07:18:32.220576","MEAN_MOTION":15.30195627,"ECCENTRICITY":0.00011703,"INCLINATION":53.1606,"RA_OF_ASC_NODE":28.5391,"ARG_OF_PERICENTER":86.0249,"MEAN_ANOMALY":274.0885,"EPHEMERIS_TYPE":0,"CLASSIFICATION_TYPE":"U","NORAD_CAT_ID":64112,"ELEMENT_SET_NO":999,"REV_AT_EPOCH":4582,"BSTAR":0.00074093777,"MEAN_MOTION_DOT":0.00021646,"MEAN_MOTION_DDOT":0},{"OBJECT_NAME":"COSMOS 2251 DEB","OBJECT_ID":"1993-036BXP","EPOCH":"2026-03-04T07:23:49.847712","MEAN_MOTION":15.24789556,"ECCENTRICITY":0.00190834,"INCLINATION":73.9759,"RA_OF_ASC_NODE":64.3004,"ARG_OF_PERICENTER":239.4537,"MEAN_ANOMALY":120.4779,"EPHEMERIS_TYPE":0,"CLASSIFICATION_TYPE":"U","NORAD_CAT_ID":47059,"ELEMENT_SET_NO":999,"REV_AT_EPOCH":9543,"BSTAR":0.0048704033,"MEAN_MOTION_DOT":0.00123422,"MEAN_MOTION_DDOT":0}]
